STARLINK-6268           
1 56415U 23061AT  24045.81187987  .00031213  00000+0  23138-2 0  9995
2 56415  43.0025 320.6777 0001453 265.7491  94.3185 15.02562225 43508
STARLINK-6260           
1 56416U 23061AU  24045.78893052  .00001414  00000+0  11969-3 0  9999
2 56416  43.0026 308.3606 0001001 273.4553  86.6174 15.02534576 43643
STARLINK-6261           
1 56417U 23061AV  24046.13758959  .00031593  00000+0  23425-2 0  9996
2 56417  43.0022 318.8218 0001556 265.4668  94.5996 15.02548267 43842
STARLINK-5356           
1 56418U 23061AW  24045.77449564  .00004006  00000+0  31135-3 0  9992
2 56418  43.0008 308.2522 0001256 266.9944  93.0755 15.02544070 43641
STARLINK-5350           
1 56419U 23061AX  24046.13426029  .00003188  00000+0  25091-3 0  9999
2 56419  43.0016 318.7978 0000940 289.3737  70.7004 15.02544118 43844
STARLINK-6272           
1 56420U 23061AY  24045.77116835  .00001273  00000+0  10930-3 0  9990
2 56420  43.0028 308.2265 0001243 286.8802  73.1904 15.02541031 43649
STARLINK-6270           
1 56421U 23061AZ  24045.99057576  .00001888  00000+0  15475-3 0  9992
2 56421  43.0018 307.2902 0001823 274.0547  86.0087 15.02542334 43962
STARLINK-6236           
1 56422U 23061BA  24046.09801026  .00010166  00000+0  76637-3 0  9998
2 56422  43.0032 306.3745 0001403 265.4672  94.6010 15.02544837 43984
STARLINK-6239           
1 56423U 23061BB  24045.76783745  .00001954  00000+0  15970-3 0  9997
2 56423  43.0018 308.2008 0001631 279.4150  80.6508 15.02539200 43649
STARLINK-6242           
1 56424U 23061BC  24045.75896199  .00023217  00000+0  17275-2 0  9990
2 56424  43.0026 308.1308 0000652 318.2327  41.8466 15.02549078 43647
STARLINK-6224           
1 56425U 23061BD  24045.76229153  .00003371  00000+0  26450-3 0  9997
2 56425  43.0030 308.1564 0001517 274.5337  85.5332 15.02537600 43648
STARLINK-5352           
1 56426U 23061BE  24045.91784974  .00003197  00000+0  25702-3 0  9997
2 56426  43.0041 307.5949 0001502 276.9042  83.1629 15.01723409 43662
STARLINK-5724           
1 56427U 23061BF  24045.91927875  .00006731  00000+0  52367-3 0  9991
2 56427  43.0017 307.6065 0001307 258.6109 101.4586 15.01738739 43668
STARLINK-6238           
1 56428U 23061BG  24045.88414751  .00004010  00000+0  31174-3 0  9993
2 56428  43.0020 307.3511 0001513 273.2911  86.7758 15.02535308 43663
STARLINK-6264           
1 56429U 23061BH  24045.41547197 -.00000988  00000+0 -58104-4 0  9999
2 56429  43.0040 309.8535 0001058 283.8588  76.2137 15.02538056 43882
STARLINK-5990           
1 56448U 23064A   24045.89844977 -.00000604  00000+0 -42859-4 0  9996
2 56448  69.9984 245.1033 0002878 271.4880  88.5949 14.98330986 42333
STARLINK-5993           
1 56449U 23064B   24045.98591142  .00000262  00000+0  29758-4 0  9991
2 56449  69.9990 245.0067 0002886 271.1426  88.9403 14.98329709 42700
STARLINK-5970           
1 56450U 23064C   24045.89427066  .00000370  00000+0  38768-4 0  9997
2 56450  69.9983 245.0886 0002677 269.6158  90.4694 14.98331604 42331
STARLINK-5985           
1 56451U 23064D   24045.98173428  .00000756  00000+0  71112-4 0  9996
2 56451  69.9986 244.9916 0002983 271.0292  89.0525 14.98334995 42707
STARLINK-5986           
1 56452U 23064E   24045.97755949  .00000854  00000+0  79392-4 0  9997
2 56452  69.9983 244.9779 0002951 271.9248  88.1573 14.98333789 42700
STARLINK-5935           
1 56453U 23064F   24045.90662811  .00000544  00000+0  53422-4 0  9998
2 56453  69.9983 245.1314 0002911 271.7820  88.3006 14.98330930 42336
STARLINK-5959           
1 56454U 23064G   24045.88576383 -.00000136  00000+0 -35983-5 0  9996
2 56454  69.9989 245.0561 0002611 269.1185  90.9675 14.98325163 42331
STARLINK-5987           
1 56455U 23064H   24045.94835306  .00002739  00000+0  23725-3 0  9995
2 56455  69.9989 244.8726 0002743 269.8094  90.2751 14.98337289 42345
STARLINK-5995           
1 56456U 23064J   24045.96086499  .00000590  00000+0  57233-4 0  9994
2 56456  69.9982 244.9191 0002710 269.1158  90.9690 14.98332138 42701
STARLINK-5994           
1 56457U 23064K   24045.88592365  .00000478  00000+0  47830-4 0  9997
2 56457  69.9983 245.0584 0002867 271.1981  88.8849 14.98331789 42333
STARLINK-6050           
1 56458U 23064L   24045.89828419  .00000236  00000+0  27545-4 0  9994
2 56458  69.9983 245.1006 0002935 269.5191  90.5631 14.98329782 42333
STARLINK-6048           
1 56459U 23064M   24045.93181247  .00000245  00000+0  28319-4 0  9991
2 56459  69.9994 244.8146 0002855 270.5001  89.5831 14.98331681 42342
STARLINK-6047           
1 56460U 23064N   24045.94416496  .00000931  00000+0  85821-4 0  9994
2 56460  69.9991 244.8572 0002754 270.2051  89.8792 14.98335733 42345
STARLINK-6037           
1 56461U 23064P   24045.99423833 -.00000556  00000+0 -38837-4 0  9993
2 56461  70.0001 244.6318 0002562 262.4443  97.6425 14.98321683 42712
STARLINK-6045           
1 56462U 23064Q   24046.15232213  .00000498  00000+0  49511-4 0  9997
2 56462  70.0017 204.2086 0002734 270.1763  89.9083 14.98328913 43725
STARLINK-6051           
1 56463U 23064R   24045.90245451  .00000403  00000+0  41603-4 0  9998
2 56463  69.9983 245.1084 0003030 271.1869  88.8943 14.98331240 42331
STARLINK-6043           
1 56464U 23064S   24045.93999432  .00000416  00000+0  42670-4 0  9996
2 56464  69.9992 244.8428 0002878 270.6925  89.3905 14.98332927 42344
STARLINK-6054           
1 56465U 23064T   24046.15649422  .00000174  00000+0  22342-4 0  9998
2 56465  70.0014 204.2227 0002893 273.5630  86.5199 14.98331845 43727
STARLINK-6053           
1 56466U 23064U   24045.93164496  .00000365  00000+0  38340-4 0  9994
2 56466  69.9993 244.8142 0002981 269.0312  91.0505 14.98331742 42347
STARLINK-6055           
1 56467U 23064V   24045.88553671 -.00000396  00000+0 -25441-4 0  9990
2 56467  70.0000 225.1863 0002850 268.5154  91.5679 14.98327545 43181
STARLINK-5998           
1 56468U 23064W   24045.99005758  .00000358  00000+0  37761-4 0  9995
2 56468  69.9989 244.6160 0002948 270.3848  89.6974 14.98332448 42712
STARLINK-5518           
1 56469U 23064X   24045.89805738  .00000113  00000+0  17271-4 0  9994
2 56469  69.9992 225.2326 0002945 271.3350  88.7472 14.98329869 43180
STARLINK-5523           
1 56470U 23064Y   24045.88970490  .00000403  00000+0  41554-4 0  9996
2 56470  69.9995 225.2021 0003128 269.7970  90.2831 14.98334570 42822
STARLINK-5521           
1 56471U 23064Z   24045.88133836  .00003425  00000+0  29457-3 0  9996
2 56471  69.9998 225.1712 0002675 274.1264  85.9590 14.98349903 42823
STARLINK-5038           
1 56472U 23064AA  24045.88152347  .00000291  00000+0  32150-4 0  9998
2 56472  69.9995 225.1722 0002818 267.2856  92.7980 14.98331589 43181
STARLINK-5486           
1 56473U 23064AB  24045.93560192 -.00000548  00000+0 -38177-4 0  9998
2 56473  69.9996 224.9599 0002618 270.1778  89.9081 14.98326981 43197
STARLINK-5524           
1 56474U 23064AC  24045.89388274  .00000338  00000+0  36130-4 0  9995
2 56474  69.9994 225.2175 0002716 269.4912  90.5935 14.98330464 43186
STARLINK-5541           
1 56475U 23064AD  24045.92324454 -.00000577  00000+0 -40582-4 0  9993
2 56475  69.9993 224.9174 0002921 270.2906  89.7918 14.98327780 42831
STARLINK-5545           
1 56476U 23064AE  24045.87718308  .00000795  00000+0  74451-4 0  9995
2 56476  69.9996 225.1565 0003072 273.7605  86.3202 14.98324108 43183
STARLINK-5534           
1 56477U 23064AF  24045.91906529  .00000348  00000+0  36977-4 0  9990
2 56477  69.9994 224.9022 0002920 272.0003  88.0822 14.98330404 43196
STARLINK-6041           
1 56478U 23064AG  24045.86466122  .00000556  00000+0  54388-4 0  9992
2 56478  69.9993 225.1137 0002776 272.9310  87.1531 14.98333905 42820
STARLINK-6044           
1 56479U 23064AH  24045.90639341  .00001615  00000+0  14312-3 0  9992
2 56479  69.9990 224.8571 0002973 265.9521  94.1298 14.98327682 42835
STARLINK-6214           
1 56480U 23064AJ  24045.87300764  .00000458  00000+0  46195-4 0  9993
2 56480  69.9996 225.1414 0003011 271.3231  88.7584 14.98335483 42820
STARLINK-6222           
1 56481U 23064AK  24045.91473097 -.00000229  00000+0 -11438-4 0  9999
2 56481  69.9991 224.8864 0002970 271.2906  88.7913 14.98326065 43195
STARLINK-6220           
1 56482U 23064AL  24045.92724618  .00000011  00000+0  87461-5 0  9996
2 56482  69.9992 224.9313 0002924 270.8045  89.2779 14.98335664 42836
STARLINK-5868           
1 56483U 23064AM  24045.92307465  .00000116  00000+0  17518-4 0  9995
2 56483  69.9992 224.9131 0002909 269.6885  90.3941 14.98331945 42838
STARLINK-6221           
1 56484U 23064AN  24045.91889859 -.00001632  00000+0 -12898-3 0  9998
2 56484  69.9993 224.9002 0002939 269.5034  90.5788 14.98335356 43196
STARLINK-6210           
1 56485U 23064AP  24045.90220341 -.00001369  00000+0 -10698-3 0  9996
2 56485  69.9990 224.8419 0002668 270.8615  89.2238 14.98321161 42838
STARLINK-6201           
1 56486U 23064AQ  24045.91055311  .00000002  00000+0  79244-5 0  9996
2 56486  69.9989 224.8719 0002982 271.6132  88.4685 14.98329195 43194
STARLINK-6196           
1 56487U 23064AR  24045.85625661  .00000276  00000+0  30931-4 0  9993
2 56487  70.0012 205.2097 0003266 270.8924  89.1860 14.98331449 43315
STARLINK-6204           
1 56488U 23064AS  24046.13999420 -.00000284  00000+0 -15972-4 0  9992
2 56488  70.0015 204.5947 0002824 271.1486  88.9349 14.98328924 43718
STARLINK-5923           
1 56489U 23064AT  24045.84773398  .00001480  00000+0  13179-3 0  9997
2 56489  70.0003 205.1797 0003222 270.3303  89.7486 14.98339096 43317
STARLINK-5873           
1 56490U 23064AU  24045.86860710  .00000538  00000+0  52876-4 0  9997
2 56490  70.0015 205.2532 0002843 268.0702  92.0131 14.98337244 43312
STARLINK-5842           
1 56491U 23064AV  24045.71004387  .00000839  00000+0  78109-4 0  9993
2 56491  70.0009 205.5015 0003022 267.5671  92.5142 14.98332838 43292
